{
  "type": "FeatureCollection",
  "features": [
    {
      "type": "Feature",
      "properties": {
        "norad_id": 66593,
        "name": "STARLINK-36031",
        "group": "last-30-days",
        "lat": 28.379436178418572,
        "lon": 9.704198519099997,
        "alt_km": 367.1219568985516,
        "timestamp": "2025-12-07T05:38:08.685346+00:00",
        "meta_object_name": "STARLINK-36031",
        "meta_object_id": "2025-270F",
        "meta_epoch": "2025-12-06T14:00:01.999872",
        "meta_mean_motion": 15.6850063,
        "meta_eccentricity": 0.00017412,
        "meta_inclination": 42.999,
        "meta_ra_of_asc_node": 229.0457,
        "meta_arg_of_pericenter": 262.1878,
        "meta_mean_anomaly": 153.6751,
        "meta_ephemeris_type": 0,
        "meta_classification_type": "U",
        "meta_norad_cat_id": 66593,
        "meta_element_set_no": 999,
        "meta_rev_at_epoch": 341,
        "meta_bstar": -0.01835075,
        "meta_mean_motion_dot": -0.01895795,
        "meta_mean_motion_ddot": 0,
        "tle_line1": "1 66593U 25270F   25340.58335648 -.01895795  00000+0 -18351-1 0  9995",
        "tle_line2": "2 66593  42.9990 229.0457 0001741 262.1878 153.6751 15.68500630  3410"
      },
      "geometry": {
        "type": "Point",
        "coordinates": [
          9.704198519099997,
          28.379436178418572
        ]
      }
    },
    {
      "type": "Feature",
      "properties": {
        "norad_id": 66594,
        "name": "STARLINK-36032",
        "group": "last-30-days",
        "lat": 27.30350318806571,
        "lon": 11.492377084523746,
        "alt_km": 367.18018006507737,
        "timestamp": "2025-12-07T05:38:08.685357+00:00",
        "meta_object_name": "STARLINK-36032",
        "meta_object_id": "2025-270G",
        "meta_epoch": "2025-12-06T14:00:01.999872",
        "meta_mean_motion": 15.68503484,
        "meta_eccentricity": 0.00015654,
        "meta_inclination": 42.9991,
        "meta_ra_of_asc_node": 229.0408,
        "meta_arg_of_pericenter": 261.4892,
        "meta_mean_anomaly": 156.2931,
        "meta_ephemeris_type": 0,
        "meta_classification_type": "U",
        "meta_norad_cat_id": 66594,
        "meta_element_set_no": 999,
        "meta_rev_at_epoch": 315,
        "meta_bstar": -0.01842681,
        "meta_mean_motion_dot": -0.0190283,
        "meta_mean_motion_ddot": 0,
        "tle_line1": "1 66594U 25270G   25340.58335648 -.01902830  00000+0 -18427-1 0  9999",
        "tle_line2": "2 66594  42.9991 229.0408 0001565 261.4892 156.2931 15.68503484  3150"
      },
      "geometry": {
        "type": "Point",
        "coordinates": [
          11.492377084523746,
          27.30350318806571
        ]
      }
    },
    {
      "type": "Feature",
      "properties": {
        "norad_id": 66595,
        "name": "STARLINK-35711",
        "group": "last-30-days",
        "lat": 26.20509915103654,
        "lon": 13.245256441216725,
        "alt_km": 367.40019062439933,
        "timestamp": "2025-12-07T05:38:08.685366+00:00",
        "meta_object_name": "STARLINK-35711",
        "meta_object_id": "2025-270H",
        "meta_epoch": "2025-12-06T14:00:01.999872",
        "meta_mean_motion": 15.68504419,
        "meta_eccentricity": 0.00016853,
        "meta_inclination": 42.999,
        "meta_ra_of_asc_node": 229.0356,
        "meta_arg_of_pericenter": 262.2938,
        "meta_mean_anomaly": 157.4063,
        "meta_ephemeris_type": 0,
        "meta_classification_type": "U",
        "meta_norad_cat_id": 66595,
        "meta_element_set_no": 999,
        "meta_rev_at_epoch": 352,
        "meta_bstar": -0.018453579,
        "meta_mean_motion_dot": -0.01905436,
        "meta_mean_motion_ddot": 0,
        "tle_line1": "1 66595U 25270H   25340.58335648 -.01905436  00000+0 -18454-1 0  9995",
        "tle_line2": "2 66595  42.9990 229.0356 0001685 262.2938 157.4063 15.68504419  3524"
      },
      "geometry": {
        "type": "Point",
        "coordinates": [
          13.245256441216725,
          26.20509915103654
        ]
      }
    },
    {
      "type": "Feature",
      "properties": {
        "norad_id": 66596,
        "name": "STARLINK-35811",
        "group": "last-30-days",
        "lat": 25.082060614417816,
        "lon": 14.971196721050493,
        "alt_km": 367.516650569034,
        "timestamp": "2025-12-07T05:38:08.685376+00:00",
        "meta_object_name": "STARLINK-35811",
        "meta_object_id": "2025-270J",
        "meta_epoch": "2025-12-06T14:00:01.999872",
        "meta_mean_motion": 15.68505779,
        "meta_eccentricity": 0.00015682,
        "meta_inclination": 42.9989,
        "meta_ra_of_asc_node": 229.0311,
        "meta_arg_of_pericenter": 263.5543,
        "meta_mean_anomaly": 158.0608,
        "meta_ephemeris_type": 0,
        "meta_classification_type": "U",
        "meta_norad_cat_id": 66596,
        "meta_element_set_no": 999,
        "meta_rev_at_epoch": 352,
        "meta_bstar": -0.018447324,
        "meta_mean_motion_dot": -0.01904871,
        "meta_mean_motion_ddot": 0,
        "tle_line1": "1 66596U 25270J   25340.58335648 -.01904871  00000+0 -18447-1 0  9990",
        "tle_line2": "2 66596  42.9989 229.0311 0001568 263.5543 158.0608 15.68505779  3522"
      },
      "geometry": {
        "type": "Point",
        "coordinates": [
          14.971196721050493,
          25.082060614417816
        ]
      }
    },
    {
      "type": "Feature",
      "properties": {
        "norad_id": 66597,
        "name": "STARLINK-35820",
        "group": "last-30-days",
        "lat": 23.941316390234864,
        "lon": 16.662244179167413,
        "alt_km": 367.63225227455496,
        "timestamp": "2025-12-07T05:38:08.685386+00:00",
        "meta_object_name": "STARLINK-35820",
        "meta_object_id": "2025-270K",
        "meta_epoch": "2025-12-06T14:00:01.999872",
        "meta_mean_motion": 15.68500105,
        "meta_eccentricity": 0.00016049,
        "meta_inclination": 42.999,
        "meta_ra_of_asc_node": 229.0261,
        "meta_arg_of_pericenter": 262.3069,
        "meta_mean_anomaly": 161.2289,
        "meta_ephemeris_type": 0,
        "meta_classification_type": "U",
        "meta_norad_cat_id": 66597,
        "meta_element_set_no": 999,
        "meta_rev_at_epoch": 352,
        "meta_bstar": -0.01838525,
        "meta_mean_motion_dot": -0.01898818,
        "meta_mean_motion_ddot": 0,
        "tle_line1": "1 66597U 25270K   25340.58335648 -.01898818  00000+0 -18385-1 0  9995",
        "tle_line2": "2 66597  42.9990 229.0261 0001604 262.3069 161.2289 15.68500105  3529"
      },
      "geometry": {
        "type": "Point",
        "coordinates": [
          16.662244179167413,
          23.941316390234864
        ]
      }
    },
    {
      "type": "Feature",
      "properties": {
        "norad_id": 66598,
        "name": "STARLINK-35981",
        "group": "last-30-days",
        "lat": 22.782711615201563,
        "lon": 18.322685338652526,
        "alt_km": 367.7540064650402,
        "timestamp": "2025-12-07T05:38:08.685396+00:00",
        "meta_object_name": "STARLINK-35981",
        "meta_object_id": "2025-270L",
        "meta_epoch": "2025-12-06T14:00:01.999872",
        "meta_mean_motion": 15.68503037,
        "meta_eccentricity": 0.00016737,
        "meta_inclination": 42.999,
        "meta_ra_of_asc_node": 229.0212,
        "meta_arg_of_pericenter": 260.8863,
        "meta_mean_anomaly": 164.5606,
        "meta_ephemeris_type": 0,
        "meta_classification_type": "U",
        "meta_norad_cat_id": 66598,
        "meta_element_set_no": 999,
        "meta_rev_at_epoch": 325,
        "meta_bstar": -0.018382693,
        "meta_mean_motion_dot": -0.0189884,
        "meta_mean_motion_ddot": 0,
        "tle_line1": "1 66598U 25270L   25340.58335648 -.01898840  00000+0 -18383-1 0  9999",
        "tle_line2": "2 66598  42.9990 229.0212 0001673 260.8863 164.5606 15.68503037  3253"
      },
      "geometry": {
        "type": "Point",
        "coordinates": [
          18.322685338652526,
          22.782711615201563
        ]
      }
    },
    {
      "type": "Feature",
      "properties": {
        "norad_id": 66599,
        "name": "STARLINK-35930",
        "group": "last-30-days",
        "lat": 21.60775174655136,
        "lon": 19.95473503921781,
        "alt_km": 367.9532665883971,
        "timestamp": "2025-12-07T05:38:08.685405+00:00",
        "meta_object_name": "STARLINK-35930",
        "meta_object_id": "2025-270M",
        "meta_epoch": "2025-12-06T14:00:01.999872",
        "meta_mean_motion": 15.68502285,
        "meta_eccentricity": 0.00016511,
        "meta_inclination": 42.999,
        "meta_ra_of_asc_node": 229.017,
        "meta_arg_of_pericenter": 262.7363,
        "meta_mean_anomaly": 164.6313,
        "meta_ephemeris_type": 0,
        "meta_classification_type": "U",
        "meta_norad_cat_id": 66599,
        "meta_element_set_no": 999,
        "meta_rev_at_epoch": 341,
        "meta_bstar": -0.01840643,
        "meta_mean_motion_dot": -0.01900944,
        "meta_mean_motion_ddot": 0,
        "tle_line1": "1 66599U 25270M   25340.58335648 -.01900944  00000+0 -18406-1 0  9995",
        "tle_line2": "2 66599  42.9990 229.0170 0001651 262.7363 164.6313 15.68502285  3417"
      },
      "geometry": {
        "type": "Point",
        "coordinates": [
          19.95473503921781,
          21.60775174655136
        ]
      }
    }
  ]
}